{
  "type": "FeatureCollection",
  "features": [
    {
      "type": "Feature",
      "properties": {
        "norad_id": 67117,
        "name": "STARLINK-35674",
        "group": "last-30-days",
        "lat": 14.039520809460067,
        "lon": -114.31124946398374,
        "alt_km": 335.5734795515409,
        "timestamp": "2025-12-26T20:30:44.703716+00:00",
        "meta_object_name": "STARLINK-35674",
        "meta_object_id": "2025-299R",
        "meta_epoch": "2025-12-26T14:00:04.000032",
        "meta_mean_motion": 15.78700926,
        "meta_eccentricity": 0.0001669,
        "meta_inclination": 42.9979,
        "meta_ra_of_asc_node": 231.7753,
        "meta_arg_of_pericenter": 252.6787,
        "meta_mean_anomaly": 24.9473,
        "meta_ephemeris_type": 0,
        "meta_classification_type": "U",
        "meta_norad_cat_id": 67117,
        "meta_element_set_no": 999,
        "meta_rev_at_epoch": 282,
        "meta_bstar": -0.011095477,
        "meta_mean_motion_dot": -0.0176676,
        "meta_mean_motion_ddot": 0,
        "tle_line1": "1 67117U 25299R   25360.58337963 -.01766760  00000+0 -11095-1 0  9990",
        "tle_line2": "2 67117  42.9979 231.7753 0001669 252.6787  24.9473 15.78700926  2827"
      },
      "geometry": {
        "type": "Point",
        "coordinates": [
          -114.31124946398374,
          14.039520809460067
        ]
      }
    },
    {
      "type": "Feature",
      "properties": {
        "norad_id": 67118,
        "name": "STARLINK-35701",
        "group": "last-30-days",
        "lat": 15.205814122202803,
        "lon": -112.92286276239243,
        "alt_km": 335.1175350767053,
        "timestamp": "2025-12-26T20:30:44.703725+00:00",
        "meta_object_name": "STARLINK-35701",
        "meta_object_id": "2025-299S",
        "meta_epoch": "2025-12-26T14:00:04.000032",
        "meta_mean_motion": 15.78710942,
        "meta_eccentricity": 0.00016483,
        "meta_inclination": 42.9976,
        "meta_ra_of_asc_node": 231.7708,
        "meta_arg_of_pericenter": 266.0116,
        "meta_mean_anomaly": 13.3853,
        "meta_ephemeris_type": 0,
        "meta_classification_type": "U",
        "meta_norad_cat_id": 67118,
        "meta_element_set_no": 999,
        "meta_rev_at_epoch": 298,
        "meta_bstar": -0.011129353,
        "meta_mean_motion_dot": -0.01772197,
        "meta_mean_motion_ddot": 0,
        "tle_line1": "1 67118U 25299S   25360.58337963 -.01772197  00000+0 -11129-1 0  9990",
        "tle_line2": "2 67118  42.9976 231.7708 0001648 266.0116  13.3853 15.78710942  2987"
      },
      "geometry": {
        "type": "Point",
        "coordinates": [
          -112.92286276239243,
          15.205814122202803
        ]
      }
    },
    {
      "type": "Feature",
      "properties": {
        "norad_id": 67119,
        "name": "STARLINK-36179",
        "group": "last-30-days",
        "lat": 17.149815561791574,
        "lon": -110.54984420521072,
        "alt_km": 334.9708945573966,
        "timestamp": "2025-12-26T20:30:44.703734+00:00",
        "meta_object_name": "STARLINK-36179",
        "meta_object_id": "2025-299T",
        "meta_epoch": "2025-12-26T14:00:04.000032",
        "meta_mean_motion": 15.78740278,
        "meta_eccentricity": 0.00016922,
        "meta_inclination": 42.9973,
        "meta_ra_of_asc_node": 231.7628,
        "meta_arg_of_pericenter": 257.8522,
        "meta_mean_anomaly": 24.5151,
        "meta_ephemeris_type": 0,
        "meta_classification_type": "U",
        "meta_norad_cat_id": 67119,
        "meta_element_set_no": 999,
        "meta_rev_at_epoch": 303,
        "meta_bstar": -0.011072923,
        "meta_mean_motion_dot": -0.01766419,
        "meta_mean_motion_ddot": 0,
        "tle_line1": "1 67119U 25299T   25360.58337963 -.01766419  00000+0 -11073-1 0  9999",
        "tle_line2": "2 67119  42.9973 231.7628 0001692 257.8522  24.5151 15.78740278  3031"
      },
      "geometry": {
        "type": "Point",
        "coordinates": [
          -110.54984420521072,
          17.149815561791574
        ]
      }
    },
    {
      "type": "Feature",
      "properties": {
        "norad_id": 67120,
        "name": "STARLINK-36217",
        "group": "last-30-days",
        "lat": 16.230017048823377,
        "lon": -111.68227561493934,
        "alt_km": 335.0644839219767,
        "timestamp": "2025-12-26T20:30:44.703742+00:00",
        "meta_object_name": "STARLINK-36217",
        "meta_object_id": "2025-299U",
        "meta_epoch": "2025-12-26T14:00:04.000032",
        "meta_mean_motion": 15.78721425,
        "meta_eccentricity": 0.00017033,
        "meta_inclination": 42.9977,
        "meta_ra_of_asc_node": 231.767,
        "meta_arg_of_pericenter": 261.77,
        "meta_mean_anomaly": 19.1906,
        "meta_ephemeris_type": 0,
        "meta_classification_type": "U",
        "meta_norad_cat_id": 67120,
        "meta_element_set_no": 999,
        "meta_rev_at_epoch": 303,
        "meta_bstar": -0.011091224,
        "meta_mean_motion_dot": -0.01767652,
        "meta_mean_motion_ddot": 0,
        "tle_line1": "1 67120U 25299U   25360.58337963 -.01767652  00000+0 -11091-1 0  9991",
        "tle_line2": "2 67120  42.9977 231.7670 0001703 261.7700  19.1906 15.78721425  3030"
      },
      "geometry": {
        "type": "Point",
        "coordinates": [
          -111.68227561493934,
          16.230017048823377
        ]
      }
    },
    {
      "type": "Feature",
      "properties": {
        "norad_id": 67121,
        "name": "STARLINK-36124",
        "group": "last-30-days",
        "lat": 19.406807506957904,
        "lon": -107.68433967022985,
        "alt_km": 334.4806165302789,
        "timestamp": "2025-12-26T20:30:44.703751+00:00",
        "meta_object_name": "STARLINK-36124",
        "meta_object_id": "2025-299V",
        "meta_epoch": "2025-12-26T14:00:04.000032",
        "meta_mean_motion": 15.78751717,
        "meta_eccentricity": 0.00016392,
        "meta_inclination": 42.9975,
        "meta_ra_of_asc_node": 231.7542,
        "meta_arg_of_pericenter": 264.8909,
        "meta_mean_anomaly": 21.0033,
        "meta_ephemeris_type": 0,
        "meta_classification_type": "U",
        "meta_norad_cat_id": 67121,
        "meta_element_set_no": 999,
        "meta_rev_at_epoch": 303,
        "meta_bstar": -0.011064754,
        "meta_mean_motion_dot": -0.01766041,
        "meta_mean_motion_ddot": 0,
        "tle_line1": "1 67121U 25299V   25360.58337963 -.01766041  00000+0 -11065-1 0  9994",
        "tle_line2": "2 67121  42.9975 231.7542 0001639 264.8909  21.0033 15.78751717  3030"
      },
      "geometry": {
        "type": "Point",
        "coordinates": [
          -107.68433967022985,
          19.406807506957904
        ]
      }
    },
    {
      "type": "Feature",
      "properties": {
        "norad_id": 67122,
        "name": "STARLINK-36188",
        "group": "last-30-days",
        "lat": 20.398451881953513,
        "lon": -106.38140735583191,
        "alt_km": 334.5260340061759,
        "timestamp": "2025-12-26T20:30:44.703759+00:00",
        "meta_object_name": "STARLINK-36188",
        "meta_object_id": "2025-299W",
        "meta_epoch": "2025-12-26T14:00:04.000032",
        "meta_mean_motion": 15.7876629,
        "meta_eccentricity": 0.00017586,
        "meta_inclination": 42.9976,
        "meta_ra_of_asc_node": 231.7507,
        "meta_arg_of_pericenter": 256.8252,
        "meta_mean_anomaly": 30.6338,
        "meta_ephemeris_type": 0,
        "meta_classification_type": "U",
        "meta_norad_cat_id": 67122,
        "meta_element_set_no": 999,
        "meta_rev_at_epoch": 303,
        "meta_bstar": -0.011063607,
        "meta_mean_motion_dot": -0.01767019,
        "meta_mean_motion_ddot": 0,
        "tle_line1": "1 67122U 25299W   25360.58337963 -.01767019  00000+0 -11064-1 0  9990",
        "tle_line2": "2 67122  42.9976 231.7507 0001758 256.8252  30.6338 15.78766290  3033"
      },
      "geometry": {
        "type": "Point",
        "coordinates": [
          -106.38140735583191,
          20.398451881953513
        ]
      }
    },
    {
      "type": "Feature",
      "properties": {
        "norad_id": 67123,
        "name": "STARLINK-36151",
        "group": "last-30-days",
        "lat": 18.267432972632925,
        "lon": -109.14668694784271,
        "alt_km": 334.83270030224503,
        "timestamp": "2025-12-26T20:30:44.703769+00:00",
        "meta_object_name": "STARLINK-36151",
        "meta_object_id": "2025-299X",
        "meta_epoch": "2025-12-26T14:00:04.000032",
        "meta_mean_motion": 15.78744054,
        "meta_eccentricity": 0.00017473,
        "meta_inclination": 42.9979,
        "meta_ra_of_asc_node": 231.7593,
        "meta_arg_of_pericenter": 257.6513,
        "meta_mean_anomaly": 26.4539,
        "meta_ephemeris_type": 0,
        "meta_classification_type": "U",
        "meta_norad_cat_id": 67123,
        "meta_element_set_no": 999,
        "meta_rev_at_epoch": 303,
        "meta_bstar": -0.011027611,
        "meta_mean_motion_dot": -0.01760373,
        "meta_mean_motion_ddot": 0,
        "tle_line1": "1 67123U 25299X   25360.58337963 -.01760373  00000+0 -11028-1 0  9997",
        "tle_line2": "2 67123  42.9979 231.7593 0001747 257.6513  26.4539 15.78744054  3039"
      },
      "geometry": {
        "type": "Point",
        "coordinates": [
          -109.14668694784271,
          18.267432972632925
        ]
      }
    }
  ]
}